{
    "links": {
        "self": "http://www.neowsapp.com/rest/v1/neo/3160783?api_key=iIulBulltgU6a56xZRHN4H3l9WmuAYTsLGpBGhQ2"
    },
    "id": "3160783",
    "neo_reference_id": "3160783",
    "name": "(2003 SV159)",
    "designation": "2003 SV159",
    "nasa_jpl_url": "http://ssd.jpl.nasa.gov/sbdb.cgi?sstr=3160783",
    "absolute_magnitude_h": 22.9,
    "estimated_diameter": {
        "kilometers": {
            "estimated_diameter_min": 0.0699125232,
            "estimated_diameter_max": 0.1563291544
        },
        "meters": {
            "estimated_diameter_min": 69.9125232246,
            "estimated_diameter_max": 156.3291544087
        },
        "miles": {
            "estimated_diameter_min": 0.0434416145,
            "estimated_diameter_max": 0.097138403
        },
        "feet": {
            "estimated_diameter_min": 229.3718026961,
            "estimated_diameter_max": 512.8909429502
        }
    },
    "is_potentially_hazardous_asteroid": false,
    "close_approach_data": [
        {
            "close_approach_date": "2003-09-17",
            "close_approach_date_full": "2003-Sep-17 20:46",
            "epoch_date_close_approach": 1063831560000,
            "relative_velocity": {
                "kilometers_per_second": "8.0201787296",
                "kilometers_per_hour": "28872.6434264803",
                "miles_per_hour": "17940.3378001927"
            },
            "miss_distance": {
                "astronomical": "0.0669399795",
                "lunar": "26.0396520255",
                "kilometers": "10014078.351043665",
                "miles": "6222459.748045977"
            },
            "orbiting_body": "Earth"
        }
    ],
    "orbital_data": {
        "orbit_id": "17",
        "orbit_determination_date": "2018-03-01 06:20:27",
        "first_observation_date": "2003-09-22",
        "last_observation_date": "2003-10-24",
        "data_arc_in_days": 32,
        "observations_used": 87,
        "orbit_uncertainty": "8",
        "minimum_orbit_intersection": ".0629433",
        "jupiter_tisserand_invariant": "3.503",
        "epoch_osculation": "2453660.5",
        "eccentricity": ".5195085082430081",
        "semi_major_axis": "2.163325218131047",
        "inclination": "5.014843671507698",
        "ascending_node_longitude": "200.1755842726741",
        "orbital_period": "1162.200736355283",
        "perihelion_distance": "1.039459361215307",
        "perihelion_argument": "135.5934902610367",
        "aphelion_distance": "3.287191075046788",
        "perihelion_time": "2454046.736703085377",
        "mean_anomaly": "240.3604155795081",
        "mean_motion": ".3097571604789867",
        "equinox": "J2000",
        "orbit_class": {
            "orbit_class_type": "AMO",
            "orbit_class_description": "Near-Earth asteroid orbits similar to that of 1221 Amor",
            "orbit_class_range": "1.017 AU < q (perihelion) < 1.3 AU"
        }
    },
    "is_sentry_object": false
}